[Satellite]
VERSION=1.1
NAME=COSMOS 2435 (722)
NICKNAME=COSMOS 2435 (722)
TLE1=1 32394U 07065B   11059.13033356 -.00000054  00000-0  10000-3 0  6495
TLE2=2 32394  65.3383  22.2335 0020914 353.0795 326.2943  2.13103352 24652
